METOP-B                 
1 38771U 12049A   26065.77017151  .00000169  00000+0  97062-4 0  9993
2 38771  98.6648 119.2501 0001184 281.9884  78.1161 14.21443683698713
SARAL                   
1 39086U 13009A   26065.80784004  .00000181  00000+0  82462-4 0  9994
2 39086  98.5553 253.6600 0001313 189.5941 170.5219 14.32827445680942
METOP-C                 
1 43689U 18087A   26065.79465983  .00000161  00000+0  93263-4 0  9998
2 43689  98.6771 127.2167 0002185 104.0470 256.0950 14.21495943380288
OTB-3-GAZELLE           
1 54023U 22127A   26064.99542453  .00000100  00000+0  43158-4 0  9992
2 54023  98.3906  58.2968 0013937 136.1584 224.0715 14.42633382179486
EOS-6 (OCEANSAT-3)      
1 54361U 22158A   26065.89128693  .00000515  00000+0  15370-3 0  9991
2 54361  98.3489 165.4782 0000094  73.2396 286.8807 14.47002662173044
KINEIS-1B               
1 60079U 24114A   26065.86421547  .00001721  00000+0  23226-3 0  9998
2 60079  97.9925  90.5092 0003802  78.9321 281.2318 14.80408809 92269
KINEIS-1C               
1 60081U 24114C   26065.83033924  .00001552  00000+0  21014-3 0  9991
2 60081  97.9947  90.3002 0002133 121.0688 239.0733 14.80399606 92230
KINEIS-1D               
1 60082U 24114D   26065.89455631  .00001108  00000+0  16788-3 0  9990
2 60082  97.9970  87.1177 0002349 128.3775 231.7646 14.76107892 92039
KINEIS-1E               
1 60083U 24114E   26065.84727213  .00001613  00000+0  21801-3 0  9997
2 60083  97.9931  90.3984 0002475  90.3143 269.8353 14.80418075 92249
KINEIS-1A               
1 60084U 24114F   26065.81349128  .00001305  00000+0  17770-3 0  9998
2 60084  97.9938  90.4874 0004815  98.8722 261.3035 14.80431666 92247
KINEIS-3C               
1 61220U 24172A   26065.24690491  .00003141  00000+0  50473-3 0  9991
2 61220  98.0298 156.2901 0003493 107.2859 252.8730 14.72295954 77924
KINEIS-3D               
1 61221U 24172B   26065.51210927  .00003155  00000+0  50695-3 0  9995
2 61221  98.0298 156.5633 0002568 112.1310 248.0170 14.72301409 78243
KINEIS-3E               
1 61222U 24172C   26065.49505100  .00003132  00000+0  50335-3 0  9999
2 61222  98.0293 156.5417 0001622 107.8931 252.2454 14.72289585 78241
KINEIS-3A               
1 61223U 24172D   26065.20619174  .00003038  00000+0  48823-3 0  9990
2 61223  98.0288 156.3450 0003077  77.1112 283.0439 14.72315457 77621
KINEIS-3B               
1 61224U 24172E   26065.25716976  .00003052  00000+0  49099-3 0  9996
2 61224  98.0286 156.4287 0003579  69.3326 290.8265 14.72269866 78206
KINEIS-5C               
1 62081U 24219A   26065.84550973 -.00000196  00000+0 -23209-4 0  9992
2 62081  97.9694 227.3565 0001723 105.9445 254.1953 14.72355534 68691
KINEIS-5D               
1 62082U 24219B   26065.81153270  .00001514  00000+0  24713-3 0  9992
2 62082  97.9627 227.3040 0001063  86.5677 273.5652 14.72335886 68693
