[{"OBJECT_NAME":"METOP-B","OBJECT_ID":"2012-049A","EPOCH":"2026-03-06T18:29:02.818464","MEAN_MOTION":14.21443683,"ECCENTRICITY":0.0001184,"INCLINATION":98.6648,"RA_OF_ASC_NODE":119.2501,"ARG_OF_PERICENTER":281.9884,"MEAN_ANOMALY":78.1161,"EPHEMERIS_TYPE":0,"CLASSIFICATION_TYPE":"U","NORAD_CAT_ID":38771,"ELEMENT_SET_NO":999,"REV_AT_EPOCH":69871,"BSTAR":9.7062e-5,"MEAN_MOTION_DOT":1.69e-6,"MEAN_MOTION_DDOT":0},{"OBJECT_NAME":"SARAL","OBJECT_ID":"2013-009A","EPOCH":"2026-03-06T19:23:17.379456","MEAN_MOTION":14.32827445,"ECCENTRICITY":0.0001313,"INCLINATION":98.5553,"RA_OF_ASC_NODE":253.66,"ARG_OF_PERICENTER":189.5941,"MEAN_ANOMALY":170.5219,"EPHEMERIS_TYPE":0,"CLASSIFICATION_TYPE":"U","NORAD_CAT_ID":39086,"ELEMENT_SET_NO":999,"REV_AT_EPOCH":68094,"BSTAR":8.2462e-5,"MEAN_MOTION_DOT":1.81e-6,"MEAN_MOTION_DDOT":0},{"OBJECT_NAME":"METOP-C","OBJECT_ID":"2018-087A","EPOCH":"2026-03-06T19:04:18.609312","MEAN_MOTION":14.21495943,"ECCENTRICITY":0.0002185,"INCLINATION":98.6771,"RA_OF_ASC_NODE":127.2167,"ARG_OF_PERICENTER":104.047,"MEAN_ANOMALY":256.095,"EPHEMERIS_TYPE":0,"CLASSIFICATION_TYPE":"U","NORAD_CAT_ID":43689,"ELEMENT_SET_NO":999,"REV_AT_EPOCH":38028,"BSTAR":9.3263e-5,"MEAN_MOTION_DOT":1.61e-6,"MEAN_MOTION_DDOT":0},{"OBJECT_NAME":"OTB-3-GAZELLE","OBJECT_ID":"2022-127A","EPOCH":"2026-03-05T23:53:24.679392","MEAN_MOTION":14.42633382,"ECCENTRICITY":0.00139376,"INCLINATION":98.3906,"RA_OF_ASC_NODE":58.2968,"ARG_OF_PERICENTER":136.1584,"MEAN_ANOMALY":224.0715,"EPHEMERIS_TYPE":0,"CLASSIFICATION_TYPE":"U","NORAD_CAT_ID":54023,"ELEMENT_SET_NO":999,"REV_AT_EPOCH":17948,"BSTAR":4.3158359e-5,"MEAN_MOTION_DOT":1.0e-6,"MEAN_MOTION_DDOT":0},{"OBJECT_NAME":"EOS-6 (OCEANSAT-3)","OBJECT_ID":"2022-158A","EPOCH":"2026-03-06T21:23:27.190752","MEAN_MOTION":14.47002662,"ECCENTRICITY":9.4e-6,"INCLINATION":98.3489,"RA_OF_ASC_NODE":165.4782,"ARG_OF_PERICENTER":73.2396,"MEAN_ANOMALY":286.8807,"EPHEMERIS_TYPE":0,"CLASSIFICATION_TYPE":"U","NORAD_CAT_ID":54361,"ELEMENT_SET_NO":999,"REV_AT_EPOCH":17304,"BSTAR":0.0001537,"MEAN_MOTION_DOT":5.15e-6,"MEAN_MOTION_DDOT":0},{"OBJECT_NAME":"KINEIS-1B","OBJECT_ID":"2024-114A","EPOCH":"2026-03-06T20:44:28.216608","MEAN_MOTION":14.80408809,"ECCENTRICITY":0.0003802,"INCLINATION":97.9925,"RA_OF_ASC_NODE":90.5092,"ARG_OF_PERICENTER":78.9321,"MEAN_ANOMALY":281.2318,"EPHEMERIS_TYPE":0,"CLASSIFICATION_TYPE":"U","NORAD_CAT_ID":60079,"ELEMENT_SET_NO":999,"REV_AT_EPOCH":9226,"BSTAR":0.00023226,"MEAN_MOTION_DOT":1.721e-5,"MEAN_MOTION_DDOT":0},{"OBJECT_NAME":"KINEIS-1C","OBJECT_ID":"2024-114C","EPOCH":"2026-03-06T19:55:41.310336","MEAN_MOTION":14.80399606,"ECCENTRICITY":0.0002133,"INCLINATION":97.9947,"RA_OF_ASC_NODE":90.3002,"ARG_OF_PERICENTER":121.0688,"MEAN_ANOMALY":239.0733,"EPHEMERIS_TYPE":0,"CLASSIFICATION_TYPE":"U","NORAD_CAT_ID":60081,"ELEMENT_SET_NO":999,"REV_AT_EPOCH":9223,"BSTAR":0.00021014,"MEAN_MOTION_DOT":1.552e-5,"MEAN_MOTION_DDOT":0},{"OBJECT_NAME":"KINEIS-1D","OBJECT_ID":"2024-114D","EPOCH":"2026-03-06T21:28:09.665184","MEAN_MOTION":14.76107892,"ECCENTRICITY":0.0002349,"INCLINATION":97.997,"RA_OF_ASC_NODE":87.1177,"ARG_OF_PERICENTER":128.3775,"MEAN_ANOMALY":231.7646,"EPHEMERIS_TYPE":0,"CLASSIFICATION_TYPE":"U","NORAD_CAT_ID":60082,"ELEMENT_SET_NO":999,"REV_AT_EPOCH":9203,"BSTAR":0.00016788,"MEAN_MOTION_DOT":1.108e-5,"MEAN_MOTION_DDOT":0},{"OBJECT_NAME":"KINEIS-1E","OBJECT_ID":"2024-114E","EPOCH":"2026-03-06T20:20:04.312032","MEAN_MOTION":14.80418075,"ECCENTRICITY":0.0002475,"INCLINATION":97.9931,"RA_OF_ASC_NODE":90.3984,"ARG_OF_PERICENTER":90.3143,"MEAN_ANOMALY":269.8353,"EPHEMERIS_TYPE":0,"CLASSIFICATION_TYPE":"U","NORAD_CAT_ID":60083,"ELEMENT_SET_NO":999,"REV_AT_EPOCH":9224,"BSTAR":0.00021801,"MEAN_MOTION_DOT":1.613e-5,"MEAN_MOTION_DDOT":0},{"OBJECT_NAME":"KINEIS-1A","OBJECT_ID":"2024-114F","EPOCH":"2026-03-06T19:31:25.646592","MEAN_MOTION":14.80431666,"ECCENTRICITY":0.0004815,"INCLINATION":97.9938,"RA_OF_ASC_NODE":90.4874,"ARG_OF_PERICENTER":98.8722,"MEAN_ANOMALY":261.3035,"EPHEMERIS_TYPE":0,"CLASSIFICATION_TYPE":"U","NORAD_CAT_ID":60084,"ELEMENT_SET_NO":999,"REV_AT_EPOCH":9224,"BSTAR":0.0001777,"MEAN_MOTION_DOT":1.305e-5,"MEAN_MOTION_DDOT":0},{"OBJECT_NAME":"KINEIS-3C","OBJECT_ID":"2024-172A","EPOCH":"2026-03-06T05:55:32.584224","MEAN_MOTION":14.72295954,"ECCENTRICITY":0.00034933,"INCLINATION":98.0298,"RA_OF_ASC_NODE":156.2901,"ARG_OF_PERICENTER":107.2859,"MEAN_ANOMALY":252.873,"EPHEMERIS_TYPE":0,"CLASSIFICATION_TYPE":"U","NORAD_CAT_ID":61220,"ELEMENT_SET_NO":999,"REV_AT_EPOCH":7792,"BSTAR":0.0005047305,"MEAN_MOTION_DOT":3.141e-5,"MEAN_MOTION_DDOT":0},{"OBJECT_NAME":"KINEIS-3D","OBJECT_ID":"2024-172B","EPOCH":"2026-03-06T12:17:26.240928","MEAN_MOTION":14.72301409,"ECCENTRICITY":0.00025686,"INCLINATION":98.0298,"RA_OF_ASC_NODE":156.5633,"ARG_OF_PERICENTER":112.131,"MEAN_ANOMALY":248.017,"EPHEMERIS_TYPE":0,"CLASSIFICATION_TYPE":"U","NORAD_CAT_ID":61221,"ELEMENT_SET_NO":999,"REV_AT_EPOCH":7824,"BSTAR":0.00050694776,"MEAN_MOTION_DOT":3.155e-5,"MEAN_MOTION_DDOT":0},{"OBJECT_NAME":"KINEIS-3E","OBJECT_ID":"2024-172C","EPOCH":"2026-03-06T11:52:52.406400","MEAN_MOTION":14.72289585,"ECCENTRICITY":0.00016227,"INCLINATION":98.0293,"RA_OF_ASC_NODE":156.5417,"ARG_OF_PERICENTER":107.8931,"MEAN_ANOMALY":252.2454,"EPHEMERIS_TYPE":0,"CLASSIFICATION_TYPE":"U","NORAD_CAT_ID":61222,"ELEMENT_SET_NO":999,"REV_AT_EPOCH":7824,"BSTAR":0.0005033541,"MEAN_MOTION_DOT":3.132e-5,"MEAN_MOTION_DDOT":0},{"OBJECT_NAME":"KINEIS-3A","OBJECT_ID":"2024-172D","EPOCH":"2026-03-06T04:56:54.966336","MEAN_MOTION":14.72315457,"ECCENTRICITY":0.00030773,"INCLINATION":98.0288,"RA_OF_ASC_NODE":156.345,"ARG_OF_PERICENTER":77.1112,"MEAN_ANOMALY":283.0439,"EPHEMERIS_TYPE":0,"CLASSIFICATION_TYPE":"U","NORAD_CAT_ID":61223,"ELEMENT_SET_NO":999,"REV_AT_EPOCH":7762,"BSTAR":0.0004882299,"MEAN_MOTION_DOT":3.038e-5,"MEAN_MOTION_DDOT":0},{"OBJECT_NAME":"KINEIS-3B","OBJECT_ID":"2024-172E","EPOCH":"2026-03-06T06:10:19.467264","MEAN_MOTION":14.72269866,"ECCENTRICITY":0.00035797,"INCLINATION":98.0286,"RA_OF_ASC_NODE":156.4287,"ARG_OF_PERICENTER":69.3326,"MEAN_ANOMALY":290.8265,"EPHEMERIS_TYPE":0,"CLASSIFICATION_TYPE":"U","NORAD_CAT_ID":61224,"ELEMENT_SET_NO":999,"REV_AT_EPOCH":7820,"BSTAR":0.0004909929,"MEAN_MOTION_DOT":3.052e-5,"MEAN_MOTION_DDOT":0},{"OBJECT_NAME":"KINEIS-5C","OBJECT_ID":"2024-219A","EPOCH":"2026-03-06T20:17:32.040672","MEAN_MOTION":14.72355534,"ECCENTRICITY":0.0001723,"INCLINATION":97.9694,"RA_OF_ASC_NODE":227.3565,"ARG_OF_PERICENTER":105.9445,"MEAN_ANOMALY":254.1953,"EPHEMERIS_TYPE":0,"CLASSIFICATION_TYPE":"U","NORAD_CAT_ID":62081,"ELEMENT_SET_NO":999,"REV_AT_EPOCH":6869,"BSTAR":-2.3209e-5,"MEAN_MOTION_DOT":-1.96e-6,"MEAN_MOTION_DDOT":0},{"OBJECT_NAME":"KINEIS-5D","OBJECT_ID":"2024-219B","EPOCH":"2026-03-06T19:28:36.425280","MEAN_MOTION":14.72335886,"ECCENTRICITY":0.0001063,"INCLINATION":97.9627,"RA_OF_ASC_NODE":227.304,"ARG_OF_PERICENTER":86.5677,"MEAN_ANOMALY":273.5652,"EPHEMERIS_TYPE":0,"CLASSIFICATION_TYPE":"U","NORAD_CAT_ID":62082,"ELEMENT_SET_NO":999,"REV_AT_EPOCH":6869,"BSTAR":0.00024713,"MEAN_MOTION_DOT":1.514e-5,"MEAN_MOTION_DDOT":0}]
